[{"OBJECT_NAME":"STARLINK-34678","OBJECT_ID":"2025-194K","EPOCH":"2026-03-09T14:39:44.468640","MEAN_MOTION":15.05709231,"ECCENTRICITY":0.0002122,"INCLINATION":97.6022,"RA_OF_ASC_NODE":284.282,"ARG_OF_PERICENTER":90.3505,"MEAN_ANOMALY":269.7965,"EPHEMERIS_TYPE":0,"CLASSIFICATION_TYPE":"U","NORAD_CAT_ID":65443,"ELEMENT_SET_NO":999,"REV_AT_EPOCH":2963,"BSTAR":0.0020213,"MEAN_MOTION_DOT":0.00029272,"MEAN_MOTION_DDOT":0},{"OBJECT_NAME":"UNKNOWN","OBJECT_ID":"","EPOCH":"2026-03-07T07:12:28.467936","MEAN_MOTION":13.84167479,"ECCENTRICITY":0.0562172,"INCLINATION":65.7706,"RA_OF_ASC_NODE":175.5588,"ARG_OF_PERICENTER":267.1474,"MEAN_ANOMALY":86.5158,"EPHEMERIS_TYPE":0,"CLASSIFICATION_TYPE":"U","NORAD_CAT_ID":81052,"ELEMENT_SET_NO":999,"REV_AT_EPOCH":61201,"BSTAR":0.0024773,"MEAN_MOTION_DOT":9.583e-5,"MEAN_MOTION_DDOT":0}]
